CUTE-1 (CO-55)          
1 27844U 03031E   25345.95770434  .00000595  00000+0  27702-3 0  9999
2 27844  98.6765 351.8708 0009822  15.6813 344.4669 14.24178207165021
CUBESAT XI-IV (CO-57)   
1 27848U 03031J   25345.99412917  .00000486  00000+0  23295-3 0  9998
2 27848  98.6794 351.7694 0010034  32.7444 327.4355 14.23486369164748
CUBESAT XI-V            
1 28895U 05043F   25345.89780770  .00003130  00000+0  50728-3 0  9990
2 28895  98.2721 132.9613 0015375  80.6879 279.6066 14.71894971 74195
CUTE-1.7+APD II (CO-65) 
1 32785U 08021C   25345.97477357  .00008788  00000+0  59003-3 0  9994
2 32785  97.8086 319.0525 0007901 314.4723  45.5857 15.07030212956972
CANX-2                  
1 32790U 08021H   25345.90223005  .00006913  00000+0  50757-3 0  9997
2 32790  97.8433 317.5318 0009640 325.8544  34.2060 15.03755936956644
SEEDS II (CO-66)        
1 32791U 08021J   25345.91947347  .00024924  00000+0  99319-3 0  9990
2 32791  97.7445 331.0367 0001183 217.2094 142.9061 15.25208628958678
SWISSCUBE               
1 35932U 09051B   25345.67579566  .00002391  00000+0  48702-3 0  9995
2 35932  98.4141 245.2370 0008112  77.1021 283.1086 14.61953056861759
BEESAT-1                
1 35933U 09051C   25345.45523562  .00002208  00000+0  45725-3 0  9996
2 35933  98.4071 245.0267 0006571  89.3936 270.8017 14.61274008861763
ITUPSAT1                
1 35935U 09051E   25345.69487433  .00001835  00000+0  39205-3 0  9991
2 35935  98.4160 244.6501 0008724  97.7848 262.4342 14.60029841861374
TISAT 1                 
1 36799U 10035E   25345.52937402  .00027857  00000+0  11710-2 0  9994
2 36799  98.0589 271.8304 0003241 134.6633 225.4867 15.23382779839052
AEROCUBE 4.5A           
1 38767U 12048K   25345.65490392  .00062791  00000+0  10667-2 0  9999
2 38767  64.6428 323.1084 0067357 232.1705 127.3327 15.48512616343309
STRAND-1                
1 39090U 13009E   25345.97331234  .00000593  00000+0  21424-3 0  9997
2 39090  98.3822 165.8845 0009736  72.8752 287.3500 14.37004005670178
BRITE-AUSTRIA           
1 39091U 13009F   25345.97796462  .00000392  00000+0  14821-3 0  9996
2 39091  98.3887 165.1181 0011341  80.4108 279.8360 14.36435249670178
NEE-01 PEGASO           
1 39151U 13018B   25345.88646523  .00004905  00000+0  48464-3 0  9999
2 39151  98.0955 119.3432 0013917  63.0958 297.1681 14.92341371682759
POPACS 1                
1 39268U 13055D   25345.08342321  .00263770  21788-4  80108-3 0  9999
2 39268  80.9545 213.8203 0118160  52.1774 309.0112 15.81256622643314
POPACS 2                
1 39269U 13055E   25346.02152702  .00021786  00000+0  39302-3 0  9995
2 39269  80.9947 357.3405 0448378  72.3067 292.6558 14.83381035635382
POPACS 3                
1 39270U 13055F   25345.66147175  .00011790  00000+0  29364-3 0  9995
2 39270  81.0042  71.8942 0567254 279.5040  74.2508 14.51820327611305
ZACUBE-1 (TSHEPISOSAT)  
1 39417U 13066B   25345.85739628  .00007133  00000+0  58179-3 0  9993
2 39417  97.8069 302.4013 0041881 149.7579 210.6074 14.99071809652643
WNISAT-1                
1 39423U 13066H   25345.90871463  .00001686  00000+0  31486-3 0  9999
2 39423  97.6929 143.7063 0165449 101.7400 260.2415 14.57639524639443
TRITON-1                
1 39427U 13066M   25346.03271703  .00005415  00000+0  66344-3 0  9994
2 39427  97.8310 255.1664 0093151 123.2730 237.7450 14.80483541646384
GOMX-1                  
1 39430U 13066Q   25345.81156596  .00003764  00000+0  57800-3 0  9997
2 39430  97.6592 192.9949 0129835 319.5732  39.5881 14.68576559642406
CUBEBUG-2 (LO-74)       
1 39440U 13066AA  25345.80023285  .00008894  00000+0  85569-3 0  9997
2 39440  97.8701 289.4727 0057996 289.0364  70.4577 14.91955049649030
NEE-02 KRYSAOR          
1 39441U 13066AB  25345.76656269  .00005620  00000+0  63047-3 0  9998
2 39441  97.8725 281.6423 0066605 325.3273  34.3609 14.85585210648366
FUNCUBE-1 (AO-73)       
1 39444U 13066AE  25345.85768013  .00013751  00000+0  93132-3 0  9994
2 39444  97.8059 309.1249 0040383 118.7375 241.7919 15.05930234651436
UWE-3                   
1 39446U 13066AG  25345.81755717  .00008333  00000+0  74722-3 0  9993
2 39446  97.8475 296.1666 0049469 222.3907 137.3487 14.95085794649566
BRITE-CA1 (TORONTO)     
1 40020U 14033L   25345.89259388  .00002515  00000+0  38726-3 0  9999
2 40020  97.9489 113.6446 0079816 155.7490 204.7507 14.72206943614656
DUCHIFAT-1              
1 40021U 14033M   25345.08670601  .00054684  00000+0  13451-2 0  9997
2 40021  98.0790  16.7287 0007695  39.8904 320.2905 15.40415111626595
NANOSATC-BR1            
1 40024U 14033Q   25346.00342843  .00023079  00000+0  93726-3 0  9995
2 40024  98.0905 357.6021 0005693 106.5546 253.6316 15.24580735625398
QB50P1                  
1 40025U 14033R   25345.95911998  .00013762  00000+0  75115-3 0  9992
2 40025  98.0970 339.5047 0010467 137.2100 222.9947 15.14429277624659
QB50P2                  
1 40032U 14033Y   25345.95229155  .00013009  00000+0  76447-3 0  9990
2 40032  98.0645 326.7688 0009916  91.5362 268.7003 15.11795326624349
PERSEUS-M2              
1 40037U 14033AD  25346.00987380  .00004795  00000+0  44682-3 0  9991
2 40037  97.9761 288.1094 0011343 192.2655 167.8290 14.94697108622810
PERSEUS-M1              
1 40039U 14033AF  25345.79359024  .00003612  00000+0  33760-3 0  9998
2 40039  97.9463 282.1932 0011195 191.3009 168.7961 14.94750436622633
POLYITAN-1              
1 40042U 14033AJ  25345.96146106  .00025850  00000+0  10171-2 0  9994
2 40042  98.1083 350.4709 0010416  81.4956 278.7461 15.25582930624977
TIGRISAT                
1 40043U 14033AK  25345.95997473  .00004052  00000+0  48130-3 0  9993
2 40043  97.7560 135.6893 0049585 330.1351  29.7036 14.84117221617843
AEROCUBE 6A             
1 40045U 14033AM  25345.97954696  .00010909  00000+0  98023-3 0  9991
2 40045  97.7040 150.4737 0039806 282.7254  76.9518 14.95248957618617
AEROCUBE 6B             
1 40046U 14033AN  25345.95488450  .00011964  00000+0  10402-2 0  9996
2 40046  97.7036 149.8803 0037801 274.8447  84.8459 14.96572344618723
CANX-4                  
1 40055U 14034C   25345.87523327  .00002167  00000+0  28829-3 0  9999
2 40055  98.3358 209.0462 0011598 251.9258 108.0690 14.80784248616802
CANX-5                  
1 40056U 14034D   25345.94335001  .00002188  00000+0  29089-3 0  9990
2 40056  98.3360 209.1495 0011602 251.9266 108.0681 14.80800700607620
UKUBE-1                 
1 40074U 14037F   25345.99070673  .00015270  00000+0  95044-3 0  9999
2 40074  98.4146 325.2525 0003466  78.9423 281.2193 15.09708647620275
BRITE-PL2 (HEWELIUSZ)   
1 40119U 14049B   25345.86290864  .00003757  00000+0  36042-3 0  9994
2 40119  97.8994  91.7230 0014627  16.7494 343.4206 14.93652134613477
AEROCUBE 5C             
1 40965U 15058B   25345.68212182  .00007415  00000+0  65171-3 0  9991
2 40965  64.7672 125.3613 0137975 136.5498 224.6588 14.90151345337705
AEROCUBE 7              
1 40966U 15058C   25345.51617708  .00010333  00000+0  83485-3 0  9998
2 40966  64.7630 111.8786 0128276 136.2480 224.8886 14.93949767337904
FOX-1A (AO-85)          
1 40967U 15058D   25345.86869769  .00007290  00000+0  65462-3 0  9996
2 40967  64.7747 140.5492 0135005 130.3442 230.9555 14.89644921 85650
SINOD-D 1               
1 40968U 15058E   25345.51371759  .00011315  00000+0  92086-3 0  9991
2 40968  64.7753 125.8397 0123461 128.6237 232.6008 14.94060439 88605
SNAP-3 ALICE            
1 40970U 15058G   25345.48765196  .00067076  00000+0  19651-2 0  9993
2 40970  64.7612  18.3012 0044576 120.7984 239.7549 15.33818888 87883
LMRST-SAT               
1 40971U 15058H   25345.84491658  .00006918  00000+0  62383-3 0  9992
2 40971  64.7752 136.6201 0137465 132.1386 229.1504 14.89300137 85645
SNAP-3 EDDIE            
1 40972U 15058J   25345.47051303  .00065176  00000+0  18560-2 0  9999
2 40972  64.7537  10.2343 0047687 124.6142 235.9503 15.34569942 90005
PROPCUBE 3              
1 40973U 15058K   25345.65384449  .00008742  00000+0  72907-3 0  9992
2 40973  64.7691 117.7849 0130672 134.2562 226.9366 14.92671440 86799
BISONSAT                
1 40974U 15058L   25345.48309105  .00023017  00000+0  12526-2 0  9992
2 40974  64.7624  58.2757 0087046 130.0602 230.8197 15.11194510 87201
SNAP-3 JIMI             
1 40975U 15058M   25345.58413926  .00012641  00000+0  90156-3 0  9998
2 40975  64.7663  92.2471 0112993 132.5034 228.5697 14.99779332 86060
PROPCUBE 1 (FLORA)      
1 40976U 15058N   25345.89949261  .00006297  00000+0  59050-3 0  9997
2 40976  64.7740 155.1653 0136890 134.2658 226.9785 14.87968425 88388
SINOD-D 3               
1 40977U 15058P   25345.51276633  .00010444  00000+0  88835-3 0  9995
2 40977  64.7727 141.1291 0125540 133.1437 228.0257 14.92272905 86731
HORYU-4                 
1 41340U 16012D   25345.97524341  .00057063  00000+0  95770-3 0  9997
2 41340  30.9950 315.2308 0006927 226.4804 133.5270 15.50476545541432
RAVAN                   
1 41849U 16067B   25345.87471552  .00043442  00000+0  11123-2 0  9990
2 41849  98.0161 210.9348 0006323 317.6443  42.4312 15.39257444498744
CELTEE 1                
1 41850U 16067C   25346.00740204  .00010679  00000+0  54025-3 0  9996
2 41850  98.0876 194.8221 0001824 111.8129 248.3297 15.17232444497472
OPTICUBE 04             
1 41851U 16067D   25345.50852894  .00005586  00000+0  36114-3 0  9990
2 41851  98.0827 182.9065 0016798  35.6422 324.5924 15.08541270496864
AEROCUBE 8D             
1 41852U 16067E   25345.49616841  .00015905  00000+0  71901-3 0  9998
2 41852  98.0897 196.5245 0005166  67.9244 292.2538 15.21024834497501
AEROCUBE 8C             
1 41853U 16067F   25346.00910393  .00013846  00000+0  62284-3 0  9992
2 41853  98.0761 194.5616 0005859   2.0439 358.0818 15.21226970497571
CORVUS BC2              
1 42846U 17042X   25345.97317717  .00005874  00000+0  42025-3 0  9998
2 42846  97.3849 150.0319 0014642  37.8313 322.3940 15.04711039458895
